O3B FM17                
1 44114U 19020C   26095.75889113 -.00000025  00000+0  00000+0 0  9996
2 44114   0.0358 348.7511 0002633  22.7857 348.4681  5.00115517127904
O3B FM18                
1 44115U 19020D   26095.70519481 -.00000025  00000+0  00000+0 0  9990
2 44115   0.0533   1.1669 0002731  14.3141 344.5262  5.00115358128025
SES-17                  
1 49332U 21095A   26095.80302221 -.00000270  00000+0  00000+0 0  9996
2 49332   0.0344  44.4850 0001161 338.6189  32.9787  1.00269557 17128
SES-22                  
1 52933U 22071A   26095.71748227  .00000000  00000+0  00000+0 0  9992
2 52933   0.0145 222.8969 0001265 163.6461 286.7482  1.00270635  6796
SES-20                  
1 53960U 22123A   26095.65324300 -.00000099  00000+0  00000+0 0  9995
2 53960   0.0383  82.3247 0001897 348.5318 255.1565  1.00271519 12808
SES-21                  
1 53961U 22123B   26095.71886895  .00000071  00000+0  00000+0 0  9994
2 53961   0.0252  69.9899 0001009 295.7251 316.0877  1.00269903  6486
O3B MPOWER F1           
1 54755U 22174A   26095.00433162 -.00000026  00000+0  00000+0 0  9990
2 54755   0.0622 348.9934 0005641  43.4576   5.1082  5.00114922 61695
O3B MPOWER F2           
1 54756U 22174B   26095.15002366 -.00000026  00000+0  00000+0 0  9995
2 54756   0.0593 346.1754 0005932  27.2945 346.5447  5.00115573 61797
SES-18                  
1 55970U 23038A   26095.58193360 -.00000099  00000+0  00000+0 0  9996
2 55970   0.0239 260.3775 0001608  76.2291 323.6640  1.00272199 11371
SES-19                  
1 55971U 23038B   26095.71826229  .00000089  00000+0  00000+0 0  9997
2 55971   0.0208 279.1927 0001871 105.0370 293.4543  1.00271322 11357
O3B MPOWER F4           
1 56367U 23059A   26095.61414291 -.00000025  00000+0  00000+0 0  9992
2 56367   0.0643   4.4262 0007051  24.5317 331.0801  5.00116099 54977
O3B MPOWER F3           
1 56368U 23059B   26095.64744129 -.00000025  00000+0  00000+0 0  9992
2 56368   0.0654   4.4262 0006597  14.1633 341.4335  5.00116689 51104
O3B MPOWER F5           
1 58346U 23175A   26094.54877989 -.00000026  00000+0  00000+0 0  9999
2 58346   0.0427   8.9221 0004276  14.6597 336.4364  5.00115742 45759
O3B MPOWER F6           
1 58347U 23175B   26095.44903603 -.00000025  00000+0  00000+0 0  9992
2 58347   0.0502   5.2901 0004866 358.5766 356.1359  5.00116381 44709
ASTRA 1P (SES-24)       
1 60086U 24115A   26095.82009561  .00000121  00000+0  00000+0 0  9998
2 60086   0.0675  26.7041 0002580 295.4577 186.3806  1.00266953  6475
O3B MPOWER F7           
1 62362U 24244A   26095.71515696 -.00000025  00000+0  00000+0 0  9993
2 62362   0.0719   0.9202 0006098  12.7255 346.3698  5.00115224 22896
O3B MPOWER F8           
1 62363U 24244B   26095.68211194 -.00000025  00000+0  00000+0 0  9996
2 62363   0.0410 315.0158 0006392  51.7685 353.2232  5.00115610 17245
