[{"OBJECT_NAME":"O3B FM17","OBJECT_ID":"2019-020C","EPOCH":"2026-04-05T18:12:48.193632","MEAN_MOTION":5.00115517,"ECCENTRICITY":0.0002633,"INCLINATION":0.0358,"RA_OF_ASC_NODE":348.7511,"ARG_OF_PERICENTER":22.7857,"MEAN_ANOMALY":348.4681,"EPHEMERIS_TYPE":0,"CLASSIFICATION_TYPE":"U","NORAD_CAT_ID":44114,"ELEMENT_SET_NO":999,"REV_AT_EPOCH":12790,"BSTAR":0,"MEAN_MOTION_DOT":-2.5e-7,"MEAN_MOTION_DDOT":0},{"OBJECT_NAME":"O3B FM18","OBJECT_ID":"2019-020D","EPOCH":"2026-04-05T16:55:28.831584","MEAN_MOTION":5.00115358,"ECCENTRICITY":0.0002731,"INCLINATION":0.0533,"RA_OF_ASC_NODE":1.1669,"ARG_OF_PERICENTER":14.3141,"MEAN_ANOMALY":344.5262,"EPHEMERIS_TYPE":0,"CLASSIFICATION_TYPE":"U","NORAD_CAT_ID":44115,"ELEMENT_SET_NO":999,"REV_AT_EPOCH":12802,"BSTAR":0,"MEAN_MOTION_DOT":-2.5e-7,"MEAN_MOTION_DDOT":0},{"OBJECT_NAME":"SES-17","OBJECT_ID":"2021-095A","EPOCH":"2026-04-05T19:16:21.118944","MEAN_MOTION":1.00269557,"ECCENTRICITY":0.0001161,"INCLINATION":0.0344,"RA_OF_ASC_NODE":44.485,"ARG_OF_PERICENTER":338.6189,"MEAN_ANOMALY":32.9787,"EPHEMERIS_TYPE":0,"CLASSIFICATION_TYPE":"U","NORAD_CAT_ID":49332,"ELEMENT_SET_NO":999,"REV_AT_EPOCH":1712,"BSTAR":0,"MEAN_MOTION_DOT":-2.7e-6,"MEAN_MOTION_DDOT":0},{"OBJECT_NAME":"SES-22","OBJECT_ID":"2022-071A","EPOCH":"2026-04-05T17:13:10.468128","MEAN_MOTION":1.00270635,"ECCENTRICITY":0.0001265,"INCLINATION":0.0145,"RA_OF_ASC_NODE":222.8969,"ARG_OF_PERICENTER":163.6461,"MEAN_ANOMALY":286.7482,"EPHEMERIS_TYPE":0,"CLASSIFICATION_TYPE":"U","NORAD_CAT_ID":52933,"ELEMENT_SET_NO":999,"REV_AT_EPOCH":679,"BSTAR":0,"MEAN_MOTION_DOT":0,"MEAN_MOTION_DDOT":0},{"OBJECT_NAME":"SES-20","OBJECT_ID":"2022-123A","EPOCH":"2026-04-05T15:40:40.195200","MEAN_MOTION":1.00271519,"ECCENTRICITY":0.0001897,"INCLINATION":0.0383,"RA_OF_ASC_NODE":82.3247,"ARG_OF_PERICENTER":348.5318,"MEAN_ANOMALY":255.1565,"EPHEMERIS_TYPE":0,"CLASSIFICATION_TYPE":"U","NORAD_CAT_ID":53960,"ELEMENT_SET_NO":999,"REV_AT_EPOCH":1280,"BSTAR":0,"MEAN_MOTION_DOT":-9.9e-7,"MEAN_MOTION_DDOT":0},{"OBJECT_NAME":"SES-21","OBJECT_ID":"2022-123B","EPOCH":"2026-04-05T17:15:10.277280","MEAN_MOTION":1.00269903,"ECCENTRICITY":0.0001009,"INCLINATION":0.0252,"RA_OF_ASC_NODE":69.9899,"ARG_OF_PERICENTER":295.7251,"MEAN_ANOMALY":316.0877,"EPHEMERIS_TYPE":0,"CLASSIFICATION_TYPE":"U","NORAD_CAT_ID":53961,"ELEMENT_SET_NO":999,"REV_AT_EPOCH":648,"BSTAR":0,"MEAN_MOTION_DOT":7.1e-7,"MEAN_MOTION_DDOT":0},{"OBJECT_NAME":"O3B MPOWER F1","OBJECT_ID":"2022-174A","EPOCH":"2026-04-05T00:06:14.251968","MEAN_MOTION":5.00114922,"ECCENTRICITY":0.00056413,"INCLINATION":0.0622,"RA_OF_ASC_NODE":348.9934,"ARG_OF_PERICENTER":43.4576,"MEAN_ANOMALY":5.1082,"EPHEMERIS_TYPE":0,"CLASSIFICATION_TYPE":"U","NORAD_CAT_ID":54755,"ELEMENT_SET_NO":999,"REV_AT_EPOCH":6169,"BSTAR":0,"MEAN_MOTION_DOT":-2.6e-7,"MEAN_MOTION_DDOT":0},{"OBJECT_NAME":"O3B MPOWER F2","OBJECT_ID":"2022-174B","EPOCH":"2026-04-05T03:36:02.044224","MEAN_MOTION":5.00115573,"ECCENTRICITY":0.0005932,"INCLINATION":0.0593,"RA_OF_ASC_NODE":346.1754,"ARG_OF_PERICENTER":27.2945,"MEAN_ANOMALY":346.5447,"EPHEMERIS_TYPE":0,"CLASSIFICATION_TYPE":"U","NORAD_CAT_ID":54756,"ELEMENT_SET_NO":999,"REV_AT_EPOCH":6179,"BSTAR":0,"MEAN_MOTION_DOT":-2.6e-7,"MEAN_MOTION_DDOT":0},{"OBJECT_NAME":"SES-18","OBJECT_ID":"2023-038A","EPOCH":"2026-04-05T13:57:59.063040","MEAN_MOTION":1.00272199,"ECCENTRICITY":0.0001608,"INCLINATION":0.0239,"RA_OF_ASC_NODE":260.3775,"ARG_OF_PERICENTER":76.2291,"MEAN_ANOMALY":323.664,"EPHEMERIS_TYPE":0,"CLASSIFICATION_TYPE":"U","NORAD_CAT_ID":55970,"ELEMENT_SET_NO":999,"REV_AT_EPOCH":1137,"BSTAR":0,"MEAN_MOTION_DOT":-9.9e-7,"MEAN_MOTION_DDOT":0},{"OBJECT_NAME":"SES-19","OBJECT_ID":"2023-038B","EPOCH":"2026-04-05T17:14:17.861856","MEAN_MOTION":1.00271322,"ECCENTRICITY":0.0001871,"INCLINATION":0.0208,"RA_OF_ASC_NODE":279.1927,"ARG_OF_PERICENTER":105.037,"MEAN_ANOMALY":293.4543,"EPHEMERIS_TYPE":0,"CLASSIFICATION_TYPE":"U","NORAD_CAT_ID":55971,"ELEMENT_SET_NO":999,"REV_AT_EPOCH":1135,"BSTAR":0,"MEAN_MOTION_DOT":8.9e-7,"MEAN_MOTION_DDOT":0},{"OBJECT_NAME":"O3B MPOWER F4","OBJECT_ID":"2023-059A","EPOCH":"2026-04-05T14:44:21.947424","MEAN_MOTION":5.00116099,"ECCENTRICITY":0.0007051,"INCLINATION":0.0643,"RA_OF_ASC_NODE":4.4262,"ARG_OF_PERICENTER":24.5317,"MEAN_ANOMALY":331.0801,"EPHEMERIS_TYPE":0,"CLASSIFICATION_TYPE":"U","NORAD_CAT_ID":56367,"ELEMENT_SET_NO":999,"REV_AT_EPOCH":5497,"BSTAR":0,"MEAN_MOTION_DOT":-2.5e-7,"MEAN_MOTION_DDOT":0},{"OBJECT_NAME":"O3B MPOWER F3","OBJECT_ID":"2023-059B","EPOCH":"2026-04-05T15:32:18.927456","MEAN_MOTION":5.00116689,"ECCENTRICITY":0.0006597,"INCLINATION":0.0654,"RA_OF_ASC_NODE":4.4262,"ARG_OF_PERICENTER":14.1633,"MEAN_ANOMALY":341.4335,"EPHEMERIS_TYPE":0,"CLASSIFICATION_TYPE":"U","NORAD_CAT_ID":56368,"ELEMENT_SET_NO":999,"REV_AT_EPOCH":5110,"BSTAR":0,"MEAN_MOTION_DOT":-2.5e-7,"MEAN_MOTION_DDOT":0},{"OBJECT_NAME":"O3B MPOWER F5","OBJECT_ID":"2023-175A","EPOCH":"2026-04-04T13:10:14.582496","MEAN_MOTION":5.00115742,"ECCENTRICITY":0.00042769,"INCLINATION":0.0427,"RA_OF_ASC_NODE":8.9221,"ARG_OF_PERICENTER":14.6597,"MEAN_ANOMALY":336.4364,"EPHEMERIS_TYPE":0,"CLASSIFICATION_TYPE":"U","NORAD_CAT_ID":58346,"ELEMENT_SET_NO":999,"REV_AT_EPOCH":4575,"BSTAR":0,"MEAN_MOTION_DOT":-2.6e-7,"MEAN_MOTION_DDOT":0},{"OBJECT_NAME":"O3B MPOWER F6","OBJECT_ID":"2023-175B","EPOCH":"2026-04-05T10:46:36.712992","MEAN_MOTION":5.00116381,"ECCENTRICITY":0.0004866,"INCLINATION":0.0502,"RA_OF_ASC_NODE":5.2901,"ARG_OF_PERICENTER":358.5766,"MEAN_ANOMALY":356.1359,"EPHEMERIS_TYPE":0,"CLASSIFICATION_TYPE":"U","NORAD_CAT_ID":58347,"ELEMENT_SET_NO":999,"REV_AT_EPOCH":4470,"BSTAR":0,"MEAN_MOTION_DOT":-2.5e-7,"MEAN_MOTION_DDOT":0},{"OBJECT_NAME":"ASTRA 1P (SES-24)","OBJECT_ID":"2024-115A","EPOCH":"2026-04-05T19:40:56.260704","MEAN_MOTION":1.00266953,"ECCENTRICITY":0.000258,"INCLINATION":0.0675,"RA_OF_ASC_NODE":26.7041,"ARG_OF_PERICENTER":295.4577,"MEAN_ANOMALY":186.3806,"EPHEMERIS_TYPE":0,"CLASSIFICATION_TYPE":"U","NORAD_CAT_ID":60086,"ELEMENT_SET_NO":999,"REV_AT_EPOCH":647,"BSTAR":0,"MEAN_MOTION_DOT":1.21e-6,"MEAN_MOTION_DDOT":0},{"OBJECT_NAME":"O3B MPOWER F7","OBJECT_ID":"2024-244A","EPOCH":"2026-04-05T17:09:49.561344","MEAN_MOTION":5.00115224,"ECCENTRICITY":0.0006098,"INCLINATION":0.0719,"RA_OF_ASC_NODE":0.9202,"ARG_OF_PERICENTER":12.7255,"MEAN_ANOMALY":346.3698,"EPHEMERIS_TYPE":0,"CLASSIFICATION_TYPE":"U","NORAD_CAT_ID":62362,"ELEMENT_SET_NO":999,"REV_AT_EPOCH":2289,"BSTAR":0,"MEAN_MOTION_DOT":-2.5e-7,"MEAN_MOTION_DDOT":0},{"OBJECT_NAME":"O3B MPOWER F8","OBJECT_ID":"2024-244B","EPOCH":"2026-04-05T16:22:14.471616","MEAN_MOTION":5.0011561,"ECCENTRICITY":0.0006392,"INCLINATION":0.041,"RA_OF_ASC_NODE":315.0158,"ARG_OF_PERICENTER":51.7685,"MEAN_ANOMALY":353.2232,"EPHEMERIS_TYPE":0,"CLASSIFICATION_TYPE":"U","NORAD_CAT_ID":62363,"ELEMENT_SET_NO":999,"REV_AT_EPOCH":1724,"BSTAR":0,"MEAN_MOTION_DOT":-2.5e-7,"MEAN_MOTION_DDOT":0}]
